[{"OBJECT_NAME":"OBJECT G","OBJECT_ID":"2024-205G","EPOCH":"2026-03-09T23:05:54.449664","MEAN_MOTION":15.09392775,"ECCENTRICITY":0.00211709,"INCLINATION":97.4199,"RA_OF_ASC_NODE":141.9686,"ARG_OF_PERICENTER":130.0324,"MEAN_ANOMALY":230.2768,"EPHEMERIS_TYPE":0,"CLASSIFICATION_TYPE":"U","NORAD_CAT_ID":61900,"ELEMENT_SET_NO":999,"REV_AT_EPOCH":7318,"BSTAR":0.00059967322,"MEAN_MOTION_DOT":9.576e-5,"MEAN_MOTION_DDOT":0},{"OBJECT_NAME":"STARLINK-35171","OBJECT_ID":"2025-207P","EPOCH":"2026-03-09T21:27:54.093312","MEAN_MOTION":15.05644602,"ECCENTRICITY":3.576e-5,"INCLINATION":97.6019,"RA_OF_ASC_NODE":138.8879,"ARG_OF_PERICENTER":102.0897,"MEAN_ANOMALY":258.037,"EPHEMERIS_TYPE":0,"CLASSIFICATION_TYPE":"U","NORAD_CAT_ID":65605,"ELEMENT_SET_NO":999,"REV_AT_EPOCH":2813,"BSTAR":6.560041e-5,"MEAN_MOTION_DOT":8.86e-6,"MEAN_MOTION_DDOT":0}]
